GLOBALSTAR M001         
1 25162U 98008A   25271.26634424 -.00000042  00000+0  41552-3 0  9995
2 25162  52.0055  33.1995 0002176 110.2434 258.7199 12.38218482256481
GLOBALSTAR M004         
1 25163U 98008B   25271.02448610 -.00000080  00000+0  13143-3 0  9997
2 25163  51.9989 100.4175 0003523 144.9451  26.8458 12.63404130274683
GLOBALSTAR M002         
1 25164U 98008C   25271.17586032 -.00000079  00000+0 -40602-4 0  9995
2 25164  52.0047 341.9786 0001076 345.5288  14.5501 11.61511717196031
GLOBALSTAR M003         
1 25165U 98008D   25271.12376938 -.00000171  00000+0 -86753-3 0  9992
2 25165  51.9935 243.4278 0008079 136.2112 305.1457 12.12058667245704
GLOBALSTAR M014         
1 25306U 98023A   25270.37357317 -.00000060  00000+0  32104-3 0  9999
2 25306  51.9821 265.0654 0000770 177.6007 324.7350 11.65482004203082
GLOBALSTAR M006         
1 25307U 98023B   25271.17968786 -.00000062  00000+0  28644-3 0  9993
2 25307  51.9959 319.3513 0002829 291.3833 139.0041 11.58176099228762
GLOBALSTAR M015         
1 25308U 98023C   25270.72526883 -.00000087  00000+0 -30111-3 0  9992
2 25308  51.9828  63.6474 0011746 256.9101 202.2922 11.48858913205864
GLOBALSTAR M008         
1 25309U 98023D   25271.17750546 -.00000037  00000+0  46580-3 0  9999
2 25309  51.9955 259.4590 0002924  35.1350  46.9770 12.36073221250583
